NORAD_CAT_ID,OBJECT_NAME,OBJECT_TYPE,EPOCH,MEAN_MOTION,ECCENTRICITY,INCLINATION,RA_OF_ASC_NODE,ARG_OF_PERICENTER,MEAN_ANOMALY,BSTAR,MEAN_MOTION_DOT,MEAN_MOTION_DDOT,TLE_LINE0,TLE_LINE1,TLE_LINE2,SEMIMAJOR_AXIS,PERIOD,APOGEE,PERIGEE,DECAYED
53157.0,STARLINK-4093,PAYLOAD,2024-04-05 09:05:44,15.08841296,0.0001415,53.2173,81.4046,94.2072,265.9082,6.0552e-05,6.76e-06,0.0,0 STARLINK-4093,1 53157U 22083AB  24096.37898296  .00000676  00000-0  60552-4 0  9990,2 53157  53.2173  81.4046 0001415  94.2072 265.9082 15.08841296 95181,6917.876,95.437,540.72,538.763,0.0
53157.0,STARLINK-4093,PAYLOAD,2024-04-05 15:27:16,15.0884376,0.0001418,53.2179,80.2155,95.8982,264.2172,7.9407e-05,9.76e-06,0.0,0 STARLINK-4093,1 53157U 22083AB  24096.64394016  .00000976  00000-0  79407-4 0  9993,2 53157  53.2179  80.2155 0001418  95.8982 264.2172 15.08843760 95859,6917.869,95.437,540.715,538.753,0.0
53157.0,STARLINK-4093,PAYLOAD,2024-04-06 05:45:45,15.08832469,0.0001524,53.2194,77.541,95.0828,265.0338,1.8035e-05,-1e-08,0.0,0 STARLINK-4093,1 53157U 22083AB  24097.24011087 -.00000001  00000-0  18035-4 0  9994,2 53157  53.2194  77.5410 0001524  95.0828 265.0338 15.08832469 95945,6917.903,95.438,540.823,538.714,0.0
53157.0,STARLINK-4093,PAYLOAD,2024-04-06 08:56:31,15.08832626,0.0001578,53.2194,76.9464,97.2677,262.8494,3.4113e-05,2.55e-06,0.0,0 STARLINK-4093,1 53157U 22083AB  24097.37259074  .00000255  00000-0  34113-4 0  9993,2 53157  53.2194  76.9464 0001578  97.2677 262.8494 15.08832626 95338,6917.903,95.438,540.86,538.676,0.0
53157.0,STARLINK-4093,PAYLOAD,2024-04-06 15:18:04,15.08838747,0.0001591,53.2198,75.7571,96.9182,263.1992,3.22e-05,2.24e-06,0.0,0 STARLINK-4093,1 53157U 22083AB  24097.63754747  .00000224  00000-0  32200-4 0  9990,2 53157  53.2198  75.7571 0001591  96.9182 263.1992 15.08838747 96002,6917.884,95.438,540.85,538.649,0.0
53157.0,STARLINK-4093,PAYLOAD,2024-04-07 07:11:56,15.08832456,0.0001622,53.22,72.7834,100.6763,259.4412,-2.3242e-05,-6.58e-06,0.0,0 STARLINK-4093,1 53157U 22083AB  24098.29995620 -.00000658  00000-0 -23242-4 0  9999,2 53157  53.2200  72.7834 0001622 100.6763 259.4412 15.08832456 95474,6917.903,95.438,540.891,538.646,0.0
53157.0,STARLINK-4093,PAYLOAD,2024-04-07 15:08:51,15.08837562,0.0001634,53.2203,71.2969,98.1471,261.9707,2.0735e-05,4.2e-07,0.0,0 STARLINK-4093,1 53157U 22083AB  24098.63115293  .00000042  00000-0  20735-4 0  9996,2 53157  53.2203  71.2969 0001634  98.1471 261.9707 15.08837562 95524,6917.888,95.438,540.883,538.622,0.0
53157.0,STARLINK-4093,PAYLOAD,2024-04-08 03:51:56,15.08836134,0.0001675,53.2207,68.9183,98.8536,261.2645,0.00010506,1.384e-05,0.0,0 STARLINK-4093,1 53157U 22083AB  24099.16107306  .00001384  00000-0  10506-3 0  9995,2 53157  53.2207  68.9183 0001675  98.8536 261.2645 15.08836134 96230,6917.892,95.438,540.916,538.598,0.0
53157.0,STARLINK-4093,PAYLOAD,2024-04-08 05:27:19,15.08836746,0.0001714,53.2204,68.6207,100.69,259.4285,9.7298e-05,1.261e-05,0.0,0 STARLINK-4093,1 53157U 22083AB  24099.22731302  .00001261  00000-0  97298-4 0  9999,2 53157  53.2204  68.6207 0001714 100.6900 259.4285 15.08836746 95611,6917.89,95.438,540.941,538.57,0.0
53157.0,STARLINK-4093,PAYLOAD,2024-04-08 14:59:37,15.08847183,0.0001425,53.2189,66.8343,85.908,274.2075,0.0001451,2.023e-05,0.0,0 STARLINK-4093,1 53157U 22083AB  24099.62474508  .00002023  00000-0  14510-3 0  9997,2 53157  53.2189  66.8343 0001425  85.9080 274.2075 15.08847183 96303,6917.858,95.437,540.709,538.738,0.0
53157.0,STARLINK-4093,PAYLOAD,2024-04-08 21:21:10,15.08844246,0.0001596,53.2196,65.6481,92.1815,267.936,0.00013615,1.88e-05,0.0,0 STARLINK-4093,1 53157U 22083AB  24099.88970699  .00001880  00000-0  13615-3 0  9992,2 53157  53.2196  65.6481 0001596  92.1815 267.9360 15.08844246 95713,6917.867,95.437,540.837,538.628,0.0
53157.0,STARLINK-4093,PAYLOAD,2024-04-09 03:42:44,15.08832956,0.0001313,53.2192,64.4563,91.0188,269.0954,8.8073e-05,1.114e-05,0.0,0 STARLINK-4093,1 53157U 22083AB  24100.15467601  .00001114  00000-0  88073-4 0  9990,2 53157  53.2192  64.4563 0001313  91.0188 269.0954 15.08832956 96386,6917.902,95.438,540.675,538.859,0.0
53157.0,STARLINK-4093,PAYLOAD,2024-04-09 06:53:29,15.08840523,0.0001433,53.219,63.861,89.5013,270.6144,9.1576e-05,1.17e-05,0.0,0 STARLINK-4093,1 53157U 22083AB  24100.28715168  .00001170  00000-0  91576-4 0  9992,2 53157  53.2190  63.8610 0001433  89.5013 270.6144 15.08840523 96403,6917.879,95.438,540.735,538.752,0.0
53157.0,STARLINK-4093,PAYLOAD,2024-04-09 14:50:25,15.08847073,0.000137,53.2187,62.3737,89.5966,270.5184,0.00011627,1.563e-05,0.0,0 STARLINK-4093,1 53157U 22083AB  24100.61834619  .00001563  00000-0  11627-3 0  9996,2 53157  53.2187  62.3737 0001370  89.5966 270.5184 15.08847073 95825,6917.859,95.437,540.672,538.776,0.0
53157.0,STARLINK-4093,PAYLOAD,2024-04-10 03:33:30,15.08837502,0.0001279,53.2198,59.9933,87.7073,272.4066,3.8612e-05,3.27e-06,0.0,0 STARLINK-4093,1 53157U 22083AB  24101.14827387  .00000327  00000-0  38612-4 0  9990,2 53157  53.2198  59.9933 0001279  87.7073 272.4066 15.08837502 96539,6917.888,95.438,540.638,538.868,0.0
53157.0,STARLINK-4093,PAYLOAD,2024-04-10 14:41:11,15.08851091,0.000146,53.2191,57.9122,87.5072,272.6087,4.9426e-05,4.99e-06,0.0,0 STARLINK-4093,1 53157U 22083AB  24101.61194335  .00000499  00000-0  49426-4 0  9997,2 53157  53.2191  57.9122 0001460  87.5072 272.6087 15.08851091 95970,6917.846,95.437,540.721,538.701,0.0
53157.0,STARLINK-4093,PAYLOAD,2024-04-11 01:48:54,15.08838073,0.0001736,53.2214,55.831,95.0878,265.0312,4.0251e-05,3.53e-06,0.0,0 STARLINK-4093,1 53157U 22083AB  24102.07563232  .00000353  00000-0  40251-4 0  9990,2 53157  53.2214  55.8310 0001736  95.0878 265.0312 15.08838073 96676,6917.886,95.438,540.952,538.55,0.0
53157.0,STARLINK-4093,PAYLOAD,2024-04-12 03:15:05,15.08838054,0.0001268,53.2187,51.0738,88.6789,271.4348,-2.3441e-05,-6.61e-06,0.0,0 STARLINK-4093,1 53157U 22083AB  24103.13547491 -.00000661  00000-0 -23441-4 0  9993,2 53157  53.2187  51.0738 0001268  88.6789 271.4348 15.08838054 96833,6917.886,95.438,540.629,538.874,0.0
53157.0,STARLINK-4093,PAYLOAD,2024-04-12 06:25:51,15.08840194,0.0001337,53.2196,50.4783,94.7878,265.3267,-5.9159e-05,-1.229e-05,0.0,0 STARLINK-4093,1 53157U 22083AB  24103.26795475 -.00001229  00000-0 -59159-4 0  9990,2 53157  53.2196  50.4783 0001337  94.7878 265.3267 15.08840194 96223,6917.88,95.438,540.67,538.82,0.0
53157.0,STARLINK-4093,PAYLOAD,2024-04-13 06:16:38,15.08836355,0.000127,53.219,46.0174,97.6945,262.4192,8.6766e-05,1.093e-05,0.0,0 STARLINK-4093,1 53157U 22083AB  24104.26155618  .00001093  00000-0  86766-4 0  9991,2 53157  53.2190  46.0174 0001270  97.6945 262.4192 15.08836355 97001,6917.892,95.438,540.635,538.878,0.0
53157.0,STARLINK-4093,PAYLOAD,2024-04-14 04:32:02,15.08839094,0.0001286,53.2195,41.8543,99.6759,260.4379,0.00011239,1.501e-05,0.0,0 STARLINK-4093,1 53157U 22083AB  24105.18891695  .00001501  00000-0  11239-3 0  9991,2 53157  53.2195  41.8543 0001286  99.6759 260.4379 15.08839094 96514,6917.883,95.438,540.638,538.859,0.0
53157.0,STARLINK-4093,PAYLOAD,2024-04-15 04:22:49,15.088411,0.0001346,53.2198,37.3944,100.8469,259.2675,7.8323e-05,9.59e-06,0.0,0 STARLINK-4093,1 53157U 22083AB  24106.18251904  .00000959  00000-0  78323-4 0  9999,2 53157  53.2198  37.3944 0001346 100.8469 259.2675 15.08841100 97294,6917.877,95.437,540.673,538.811,0.0
53157.0,STARLINK-4093,PAYLOAD,2024-04-16 04:13:36,15.08851692,0.0001292,53.2192,32.9351,90.2846,269.8294,0.00016969,2.415e-05,0.0,0 STARLINK-4093,1 53157U 22083AB  24107.17611114  .00002415  00000-0  16969-3 0  9998,2 53157  53.2192  32.9351 0001292  90.2846 269.8294 15.08851692 97440,6917.845,95.437,540.603,538.816,0.0
53157.0,STARLINK-4093,PAYLOAD,2024-04-16 12:10:30,15.08860057,0.0001293,53.2197,31.4476,93.0789,267.0352,0.00023129,3.397e-05,0.0,0 STARLINK-4093,1 53157U 22083AB  24107.50730220  .00003397  00000-0  23129-3 0  9991,2 53157  53.2197  31.4476 0001293  93.0789 267.0352 15.08860057 97490,6917.819,95.436,540.579,538.79,0.0
53157.0,STARLINK-4093,PAYLOAD,2024-04-17 04:04:22,15.08865862,0.0001313,53.2179,28.4744,109.5864,250.527,0.00036732,5.567e-05,0.0,0 STARLINK-4093,1 53157U 22083AB  24108.16970043  .00005567  00000-0  36732-3 0  9998,2 53157  53.2179  28.4744 0001313 109.5864 250.5270 15.08865862 97590,6917.801,95.436,540.575,538.758,0.0
53157.0,STARLINK-4093,PAYLOAD,2024-04-18 00:44:23,15.08840287,0.0001807,53.2185,24.6042,143.5042,216.6073,-7.9769e-05,-1.557e-05,0.0,0 STARLINK-4093,1 53157U 22083AB  24109.03082989 -.00001557  00000-0 -79769-4 0  9993,2 53157  53.2185  24.6042 0001807 143.5042 216.6073 15.08840287 97723,6917.88,95.438,540.995,538.494,0.0
53157.0,STARLINK-4093,PAYLOAD,2024-04-18 21:24:26,15.08822739,0.0001222,53.2187,20.7435,68.9944,291.1178,-4.27e-05,-9.67e-06,0.0,0 STARLINK-4093,1 53157U 22083AB  24109.89196938 -.00000967  00000-0 -42700-4 0  9996,2 53157  53.2187  20.7435 0001222  68.9944 291.1178 15.08822739 97221,6917.933,95.439,540.644,538.953,0.0
53157.0,STARLINK-4093,PAYLOAD,2024-04-19 03:45:58,15.08837793,0.0001502,53.2192,19.5481,94.2543,265.862,-4.733e-05,-1.041e-05,0.0,0 STARLINK-4093,1 53157U 22083AB  24110.15692203 -.00001041  00000-0 -47330-4 0  9991,2 53157  53.2192  19.5481 0001502  94.2543 265.8620 15.08837793 97891,6917.887,95.438,540.791,538.713,0.0
53157.0,STARLINK-4093,PAYLOAD,2024-04-19 21:15:12,15.08840519,0.0001505,53.2191,16.2785,96.4573,263.6591,0.00042803,6.531e-05,0.0,0 STARLINK-4093,1 53157U 22083AB  24110.88556433  .00006531  00000-0  42803-3 0  9991,2 53157  53.2191  16.2785 0001505  96.4573 263.6591 15.08840519 97377,6917.879,95.438,540.785,538.703,0.0
53157.0,STARLINK-4093,PAYLOAD,2024-04-20 00:25:58,15.08854599,0.0001638,53.2189,15.684,96.1241,263.9937,0.00065128,0.00010096,0.0,0 STARLINK-4093,1 53157U 22083AB  24111.01804175  .00010096  00000-0  65128-3 0  9992,2 53157  53.2189  15.6840 0001638  96.1241 263.9937 15.08854599 98028,6917.836,95.437,540.834,538.568,0.0
